IRIDIUM 22              
1 24907U 97043E   25074.94576726  .00000831  00000+0  28042-3 0  9999
2 24907  86.4013 153.2383 0002206  95.1997 264.9451 14.35854403443392
DUMMY MASS 1            
1 24925U 97048A   25074.80733336  .00001159  00000+0  12671-3 0  9996
2 24925  86.3417 178.4716 0008846 110.9898 249.2275 14.86858236491252
DUMMY MASS 2            
1 24926U 97048B   25074.82126551  .00001178  00000+0  12962-3 0  9998
2 24926  86.3417 180.0531 0009432 120.4912 239.7245 14.86611320491030
IRIDIUM 29              
1 24944U 97051A   25074.79228429  .00001148  00000+0  38595-3 0  9992
2 24944  86.4033 183.0319 0002036 100.6579 259.4847 14.36341055439864
IRIDIUM 33              
1 24946U 97051C   25074.81210487  .00000768  00000+0  26388-3 0  9996
2 24946  86.3949 182.2769 0008730  36.8605 323.3189 14.34805833439359
IRIDIUM 28              
1 24948U 97051E   25074.82612255  .00001029  00000+0  33909-3 0  9996
2 24948  86.4039 180.5899 0002380  86.0042 274.1428 14.37271789440434
IRIDIUM 36              
1 24967U 97056C   25074.87312394  .00001230  00000+0  40493-3 0  9998
2 24967  86.4000 212.1483 0001917  88.3505 271.7912 14.37474367438815
